2025-180A               
1 65259U 25180A   26060.20974942  .00023159  00000+0  10883-2 0  9995
2 65259  97.5026 189.2879 0011911 335.2896  24.7766 15.19541211 29374
FLOCK 4H-16             
1 66719U 25276BF  26068.76528846  .00008452  00000+0  41273-3 0  9997
2 66719  97.4302 144.0218 0004158  10.1736 349.9581 15.18505927 15325
